{
  "type": "FeatureCollection",
  "name": "yakisugi-fixture-forest",
  "crs": {
    "type": "name",
    "properties": { "name": "urn:ogc:def:crs:OGC:1.3:CRS84" }
  },
  "features": [
    {
      "type": "Feature",
      "properties": { "ID": "forest-1", "CODE_TFV": "FF1", "TFV": "Futaie de conifères", "ESSENCE": "Pin maritime" },
      "geometry": { "type": "Polygon", "coordinates": [[[-1.08, 44.99], [-1.01, 44.99], [-1.01, 45.05], [-1.08, 45.05], [-1.08, 44.99]]] }
    },
    {
      "type": "Feature",
      "properties": { "ID": "forest-2", "CODE_TFV": "M1", "TFV": "Mélange feuillus-conifères", "ESSENCE": null },
      "geometry": { "type": "Polygon", "coordinates": [[[-1.01, 45.015], [-0.96, 45.015], [-0.96, 45.06], [-1.01, 45.06], [-1.01, 45.015]]] }
    },
    {
      "type": "Feature",
      "properties": { "ID": "forest-3", "CODE_TFV": "FF2", "TFV": "Feuillus", "ESSENCE": "Chêne" },
      "geometry": { "type": "Polygon", "coordinates": [[[-1.045, 44.965], [-0.985, 44.965], [-0.985, 45.015], [-1.045, 45.015], [-1.045, 44.965]]] }
    },
    {
      "type": "Feature",
      "properties": { "ID": "forest-4", "CODE_TFV": null, "TFV": "Formation non identifiée", "ESSENCE": null },
      "geometry": { "type": "Polygon", "coordinates": [[[-0.985, 44.98], [-0.945, 44.98], [-0.945, 45.02], [-0.985, 45.02], [-0.985, 44.98]]] }
    }
  ]
}
