{
  "type": "FeatureCollection",
  "name": "yakisugi-fixture-incident",
  "crs": {
    "type": "name",
    "properties": { "name": "urn:ogc:def:crs:OGC:1.3:CRS84" }
  },
  "features": [
    {
      "type": "Feature",
      "properties": {
        "name": "Incident de démonstration de Saumos",
        "start_date": "2026-07-22"
      },
      "geometry": {
        "type": "Polygon",
        "coordinates": [
          [
            [-1.09, 44.955],
            [-0.94, 44.955],
            [-0.93, 45.07],
            [-1.1, 45.07],
            [-1.09, 44.955]
          ]
        ]
      }
    }
  ]
}
